NORAD_CAT_ID,OBJECT_NAME,OBJECT_TYPE,EPOCH,MEAN_MOTION,ECCENTRICITY,INCLINATION,RA_OF_ASC_NODE,ARG_OF_PERICENTER,MEAN_ANOMALY,BSTAR,MEAN_MOTION_DOT,MEAN_MOTION_DDOT,TLE_LINE0,TLE_LINE1,TLE_LINE2,SEMIMAJOR_AXIS,PERIOD,APOGEE,PERIGEE,DECAYED
53632.0,STARLINK-4606,PAYLOAD,2023-03-29 01:51:39,15.08860906,0.0001342,53.2176,17.2043,71.3946,288.7192,0.0016075,0.00025403,0.0,0 STARLINK-4606,1 53632U 22104AW  23088.07753586  .00025403  00000-0  16075-2 0  9995,2 53632  53.2176  17.2043 0001342  71.3946 288.7192 15.08860906 33693,6917.816,95.436,540.61,538.753,0.0
53632.0,STARLINK-4606,PAYLOAD,2023-03-30 04:53:12,15.08860573,0.0001408,53.218,12.1492,63.4947,296.6189,0.0011732,0.00018443,0.0,0 STARLINK-4606,1 53632U 22104AW  23089.20361608  .00018443  00000-0  11732-2 0  9992,2 53632  53.2180  12.1492 0001408  63.4947 296.6189 15.08860573 32846,6917.818,95.436,540.657,538.708,0.0
53632.0,STARLINK-4606,PAYLOAD,2023-03-30 11:14:45,15.08836652,0.0001353,53.219,10.9607,89.176,270.9387,0.00026621,3.951e-05,0.0,0 STARLINK-4606,1 53632U 22104AW  23089.46857903  .00003951  00000-0  26621-3 0  9990,2 53632  53.2190  10.9607 0001353  89.1760 270.9387 15.08836652 32888,6917.891,95.438,540.692,538.82,0.0
53632.0,STARLINK-4606,PAYLOAD,2023-03-31 04:43:59,15.08864692,0.0001199,53.2197,7.6922,117.8034,242.3079,0.0016093,0.00025434,0.0,0 STARLINK-4606,1 53632U 22104AW  23090.19721690  .00025434  00000-0  16093-2 0  9996,2 53632  53.2197   7.6922 0001199 117.8034 242.3079 15.08864692 32997,6917.805,95.436,540.499,538.84,0.0
53632.0,STARLINK-4606,PAYLOAD,2023-03-31 17:27:05,15.08843673,9.08e-05,53.2183,5.3114,131.065,229.042,0.00091911,0.00014371,0.0,0 STARLINK-4606,1 53632U 22104AW  23090.72714314  .00014371  00000-0  91911-3 0  9991,2 53632  53.2183   5.3114 0000908 131.0650 229.0420 15.08843673 33077,6917.869,95.437,540.362,539.106,0.0
53632.0,STARLINK-4606,PAYLOAD,2023-04-01 02:59:23,15.08855832,8.69e-05,53.2181,3.5271,123.5484,236.5591,0.0019303,0.0003058,0.0,0 STARLINK-4606,1 53632U 22104AW  23091.12458240  .00030580  00000-0  19303-2 0  9993,2 53632  53.2181   3.5271 0000869 123.5484 236.5591 15.08855832 34158,6917.832,95.437,540.298,539.096,0.0
53632.0,STARLINK-4606,PAYLOAD,2023-04-02 04:25:34,15.08850536,8.31e-05,53.218,358.7696,112.9217,247.1863,0.0012302,0.0001935,0.0,0 STARLINK-4606,1 53632U 22104AW  23092.18442902  .00019350  00000-0  12302-2 0  9992,2 53632  53.2180 358.7696 0000831 112.9217 247.1863 15.08850536 33298,6917.848,95.437,540.288,539.138,0.0
53632.0,STARLINK-4606,PAYLOAD,2023-04-02 17:08:39,15.08848415,8.88e-05,53.2173,356.3924,134.9732,225.1332,0.00078625,0.0001225,0.0,0 STARLINK-4606,1 53632U 22104AW  23092.71434848  .00012250  00000-0  78625-3 0  9994,2 53632  53.2173 356.3924 0000888 134.9732 225.1332 15.08848415 33375,6917.855,95.437,540.334,539.105,0.0
53632.0,STARLINK-4606,PAYLOAD,2023-04-02 21:54:49,15.08847836,8.68e-05,53.2186,355.4997,108.2742,251.8344,0.00050303,7.729e-05,0.0,0 STARLINK-4606,1 53632U 22104AW  23092.91306870  .00007729  00000-0  50303-3 0  9997,2 53632  53.2186 355.4997 0000868 108.2742 251.8344 15.08847836 34424,6917.856,95.437,540.322,539.121,0.0
53632.0,STARLINK-4606,PAYLOAD,2023-04-03 02:40:58,15.08857348,8.95e-05,53.2168,354.6058,105.6137,254.4954,0.00071904,0.0001118,0.0,0 STARLINK-4606,1 53632U 22104AW  23093.11178565  .00011180  00000-0  71904-3 0  9994,2 53632  53.2168 354.6058 0000895 105.6137 254.4954 15.08857348 34450,6917.827,95.436,540.312,539.073,0.0
53632.0,STARLINK-4606,PAYLOAD,2023-04-03 16:59:26,15.08845568,0.0001143,53.217,351.9314,73.4766,286.6352,0.00027148,4.036e-05,0.0,0 STARLINK-4606,1 53632U 22104AW  23093.70794914  .00004036  00000-0  27148-3 0  9994,2 53632  53.2170 351.9314 0001143  73.4766 286.6352 15.08845568 33522,6917.863,95.437,540.519,538.938,0.0
53632.0,STARLINK-4606,PAYLOAD,2023-04-04 02:31:45,15.08853806,9.63e-05,53.2174,350.1449,93.4663,266.644,0.00044972,6.879e-05,0.0,0 STARLINK-4606,1 53632U 22104AW  23094.10538618  .00006879  00000-0  44972-3 0  9997,2 53632  53.2174 350.1449 0000963  93.4663 266.6440 15.08853806 34603,6917.838,95.437,540.369,539.037,0.0
53632.0,STARLINK-4606,PAYLOAD,2023-04-04 21:36:23,15.08842925,7.89e-05,53.2178,346.5776,67.8835,292.224,0.00034359,5.185e-05,0.0,0 STARLINK-4606,1 53632U 22104AW  23094.90026816  .00005185  00000-0  34359-3 0  9994,2 53632  53.2178 346.5776 0000789  67.8835 292.2240 15.08842925 34727,6917.871,95.437,540.282,539.191,0.0
53632.0,STARLINK-4606,PAYLOAD,2023-04-05 02:22:32,15.08848107,9.45e-05,53.2177,345.6845,75.3036,284.8061,0.00055135,8.5e-05,0.0,0 STARLINK-4606,1 53632U 22104AW  23095.09898776  .00008500  00000-0  55135-3 0  9996,2 53632  53.2177 345.6845 0000945  75.3036 284.8061 15.08848107 33730,6917.856,95.437,540.374,539.067,0.0
53632.0,STARLINK-4606,PAYLOAD,2023-04-05 19:51:47,15.08838583,0.0001079,53.217,342.4128,75.6518,284.4594,0.00025828,3.825e-05,0.0,0 STARLINK-4606,1 53632U 22104AW  23095.82762930  .00003825  00000-0  25828-3 0  9990,2 53632  53.2170 342.4128 0001079  75.6518 284.4594 15.08838583 34868,6917.885,95.438,540.496,539.003,0.0
53632.0,STARLINK-4606,PAYLOAD,2023-04-05 21:27:10,15.08839166,0.0001092,53.2172,342.116,67.5118,292.5989,0.00015354,2.157e-05,0.0,0 STARLINK-4606,1 53632U 22104AW  23095.89387132  .00002157  00000-0  15354-3 0  9994,2 53632  53.2172 342.1160 0001092  67.5118 292.5989 15.08839166 33858,6917.883,95.438,540.503,538.993,0.0
53632.0,STARLINK-4606,PAYLOAD,2023-04-06 02:13:19,15.0884324,0.0001061,53.2175,341.2236,74.3409,285.7701,0.0001148,1.54e-05,0.0,0 STARLINK-4606,1 53632U 22104AW  23096.09258950  .00001540  00000-0  11480-3 0  9993,2 53632  53.2175 341.2236 0001061  74.3409 285.7701 15.08843240 34901,6917.87,95.437,540.469,539.001,0.0
53632.0,STARLINK-4606,PAYLOAD,2023-04-07 02:04:07,15.08820053,0.0001213,53.2181,336.7632,79.5127,280.6002,0.00058918,9.096e-05,0.0,0 STARLINK-4606,1 53632U 22104AW  23097.08620363  .00009096  00000-0  58918-3 0  9995,2 53632  53.2181 336.7632 0001213  79.5127 280.6002 15.08820053 34039,6917.941,95.439,540.646,538.967,0.0
53632.0,STARLINK-4606,PAYLOAD,2023-04-07 14:47:12,15.08835954,0.0001253,53.2173,334.3849,76.9522,283.161,9.6829e-05,1.253e-05,0.0,0 STARLINK-4606,1 53632U 22104AW  23097.61611616  .00001253  00000-0  96829-4 0  9996,2 53632  53.2173 334.3849 0001253  76.9522 283.1610 15.08835954 35139,6917.893,95.438,540.625,538.891,0.0
53632.0,STARLINK-4606,PAYLOAD,2023-04-07 16:22:35,15.08840057,0.0001282,53.2165,334.0892,87.2454,272.8685,4.6109e-05,4.46e-06,0.0,0 STARLINK-4606,1 53632U 22104AW  23097.68235335  .00000446  00000-0  46109-4 0  9992,2 53632  53.2165 334.0892 0001282  87.2454 272.8685 15.08840057 34121,6917.88,95.438,540.632,538.858,0.0
53632.0,STARLINK-4606,PAYLOAD,2023-04-08 14:37:59,15.0883675,0.0001344,53.215,329.9256,82.2641,277.8504,5.6732e-05,6.15e-06,0.0,0 STARLINK-4606,1 53632U 22104AW  23098.60971590  .00000615  00000-0  56732-4 0  9996,2 53632  53.2150 329.9256 0001344  82.2641 277.8504 15.08836750 35282,6917.89,95.438,540.685,538.826,0.0
53632.0,STARLINK-4606,PAYLOAD,2023-04-08 16:13:22,15.08834317,0.0001154,53.215,329.6277,83.8363,276.2761,3.0566e-05,1.99e-06,0.0,0 STARLINK-4606,1 53632U 22104AW  23098.67595722  .00000199  00000-0  30566-4 0  9996,2 53632  53.2150 329.6277 0001154  83.8363 276.2761 15.08834317 34272,6917.898,95.438,540.561,538.964,0.0
53632.0,STARLINK-4606,PAYLOAD,2023-04-09 01:45:41,15.08837139,0.0001201,53.2155,327.8435,84.0639,276.049,6.5679e-05,7.58e-06,0.0,0 STARLINK-4606,1 53632U 22104AW  23099.07339696  .00000758  00000-0  65679-4 0  9991,2 53632  53.2155 327.8435 0001201  84.0639 276.0490 15.08837139 35357,6917.889,95.438,540.585,538.923,0.0
53632.0,STARLINK-4606,PAYLOAD,2023-04-09 19:14:55,15.08842262,9.59e-05,53.2162,324.5722,84.9361,275.174,5.7086e-05,6.21e-06,0.0,0 STARLINK-4606,1 53632U 22104AW  23099.80203483  .00000621  00000-0  57086-4 0  9998,2 53632  53.2162 324.5722 0000959  84.9361 275.1740 15.08842262 34448,6917.873,95.437,540.402,539.075,0.0
53632.0,STARLINK-4606,PAYLOAD,2023-04-10 00:01:04,15.08849178,0.0001054,53.2158,323.6797,85.8485,274.2628,0.00016302,2.308e-05,0.0,0 STARLINK-4606,1 53632U 22104AW  23100.00075139  .00002308  00000-0  16302-3 0  9997,2 53632  53.2158 323.6797 0001054  85.8485 274.2628 15.08849178 34470,6917.852,95.437,540.446,538.988,0.0
53632.0,STARLINK-4606,PAYLOAD,2023-04-10 20:41:04,15.08858874,0.0001172,53.216,319.8143,86.1669,273.9457,0.00033551,5.059e-05,0.0,0 STARLINK-4606,1 53632U 22104AW  23100.86186288  .00005059  00000-0  33551-3 0  9990,2 53632  53.2160 319.8143 0001172  86.1669 273.9457 15.08858874 35621,6917.823,95.436,540.498,538.877,0.0
53632.0,STARLINK-4606,PAYLOAD,2023-04-10 23:51:51,15.08864619,0.0001208,53.2158,319.2196,85.6607,274.4523,0.00043793,6.693e-05,0.0,0 STARLINK-4606,1 53632U 22104AW  23100.99434039  .00006693  00000-0  43793-3 0  9998,2 53632  53.2158 319.2196 0001208  85.6607 274.4523 15.08864619 34629,6917.805,95.436,540.506,538.834,0.0
53632.0,STARLINK-4606,PAYLOAD,2023-04-11 20:31:52,15.08844051,0.000149,53.2166,315.3549,85.2695,274.8468,-3.5308e-05,-8.5e-06,0.0,0 STARLINK-4606,1 53632U 22104AW  23101.85546649 -.00000850  00000-0 -35308-4 0  9990,2 53632  53.2166 315.3549 0001490  85.2695 274.8468 15.08844051 35770,6917.868,95.437,540.764,538.702,0.0
53632.0,STARLINK-4606,PAYLOAD,2023-04-11 23:42:38,15.08842169,0.0001296,53.217,314.7602,86.6061,273.5079,-4.2136e-05,-9.58e-06,0.0,0 STARLINK-4606,1 53632U 22104AW  23101.98794725 -.00000958  00000-0 -42136-4 0  9990,2 53632  53.2170 314.7602 0001296  86.6061 273.5079 15.08842169 35798,6917.874,95.437,540.635,538.842,0.0
53632.0,STARLINK-4606,PAYLOAD,2023-04-12 23:33:26,15.08836141,0.0001278,53.2167,310.3,86.2558,273.858,2.4381e-06,-2.49e-06,0.0,0 STARLINK-4606,1 53632U 22104AW  23102.98155395 -.00000249  00000-0  24381-5 0  9990,2 53632  53.2167 310.3000 0001278  86.2558 273.8580 15.08836141 35945,6917.892,95.438,540.641,538.873,0.0
